STARLINK-36104          
1 66964U 25288F   25354.83335647 -.01288682  00000+0 -77711-2 0  9995
2 66964  43.0013 117.5922 0001744 282.3525 168.9771 15.79611196  3136
STARLINK-36067          
1 66965U 25288G   25354.83335647 -.01273880  00000+0 -76818-2 0  9997
2 66965  43.0014 117.5864 0001743 285.8550 167.6007 15.79576904  3133
STARLINK-36139          
1 66966U 25288H   25354.83335647 -.01285993  00000+0 -77855-2 0  9998
2 66966  43.0011 117.5807 0001520 281.8088 174.0251 15.79522316  3134
STARLINK-36136          
1 66967U 25288J   25354.83335647 -.01288353  00000+0 -78068-2 0  9999
2 66967  43.0013 117.5754 0001736 279.2177 178.7151 15.79505750  3130
STARLINK-36152          
1 66968U 25288K   25354.83335647 -.01340347  00000+0 -80174-2 0  9993
2 66968  43.0014 117.5694 0001467 285.6990 174.6614 15.79448615  3135
STARLINK-36149          
1 66969U 25288L   25354.83335647 -.01472020  00000+0 -89754-2 0  9991
2 66969  43.0013 117.5415 0001291 287.1449 184.3132 15.79289626  3135
STARLINK-35703          
1 66970U 25288M   25354.83335647 -.01494167  00000+0 -92211-2 0  9991
2 66970  43.0011 117.5188 0001435 288.5793 191.7461 15.79069328  3131
STARLINK-35678          
1 66971U 25288N   25354.83335647 -.01335732  00000+0 -79795-2 0  9996
2 66971  43.0017 117.5652 0001539 286.2592 175.9505 15.79466805  3135
STARLINK-34846          
1 66972U 25288P   25354.83335647 -.01368400  00000+0 -82190-2 0  9998
2 66972  43.0016 117.5590 0001581 288.1418 176.4741 15.79411807  3131
STARLINK-35778          
1 66973U 25288Q   25354.83335647 -.01405625  00000+0 -84818-2 0  9999
2 66973  43.0016 117.5536 0001730 285.6414 181.2354 15.79381383  3135
STARLINK-35780          
1 66974U 25288R   25354.83335647 -.01430278  00000+0 -86648-2 0  9995
2 66974  43.0017 117.5483 0001673 285.7989 183.3026 15.79343889  3130
STARLINK-35777          
1 66975U 25288S   25354.83335647 -.01471170  00000+0 -89832-2 0  9990
2 66975  43.0016 117.5365 0001487 286.2552 187.3064 15.79254366  3131
